{
  "norad_id": 63021,
  "name": "STARLINK-32929",
  "history": [
    {
      "epoch": "2026-03-28T18:05:56.646240Z",
      "apogee_km": 484.0168098525155,
      "perigee_km": 482.0232320685054,
      "latitude_deg": 5.8444561863746696e-06,
      "longitude_deg": 130.90104203682665,
      "height_km": 482.512818035453,
      "semi_major_axis_km": 6861.157020960511,
      "eccentricity": 0.00014528,
      "inclination_deg": 42.9978,
      "raan_deg": 228.5571,
      "arg_perigee_deg": 286.5353,
      "mean_anomaly_deg": 73.5339,
      "mean_motion_rev_day": 15.2758971
    },
    {
      "epoch": "2026-03-29T01:56:43.799136Z",
      "apogee_km": 483.762691093767,
      "perigee_km": 482.3163550826994,
      "latitude_deg": -3.091178216128813e-05,
      "longitude_deg": 11.03649090112085,
      "height_km": 482.533091984653,
      "semi_major_axis_km": 6861.176523088233,
      "eccentricity": 0.0001054,
      "inclination_deg": 43.003,
      "raan_deg": 226.7113,
      "arg_perigee_deg": 293.0497,
      "mean_anomaly_deg": 67.0243,
      "mean_motion_rev_day": 15.27583197
    },
    {
      "epoch": "2026-03-30T01:29:04.331616Z",
      "apogee_km": 483.44787547670694,
      "perigee_km": 482.6510172828248,
      "latitude_deg": -2.3427245690816722e-05,
      "longitude_deg": 11.443333528696352,
      "height_km": 482.5864571604235,
      "semi_major_axis_km": 6861.186446379766,
      "eccentricity": 5.807e-05,
      "inclination_deg": 43.0017,
      "raan_deg": 221.1704,
      "arg_perigee_deg": 306.8744,
      "mean_anomaly_deg": 53.2054,
      "mean_motion_rev_day": 15.27579883
    },
    {
      "epoch": "2026-03-30T09:19:51.519072Z",
      "apogee_km": 483.2219828663319,
      "perigee_km": 482.85559607917367,
      "latitude_deg": -2.247399572190019e-05,
      "longitude_deg": -108.41892136149121,
      "height_km": 482.6692001038918,
      "semi_major_axis_km": 6861.1757894727525,
      "eccentricity": 2.67e-05,
      "inclination_deg": 42.9961,
      "raan_deg": 219.327,
      "arg_perigee_deg": 37.9704,
      "mean_anomaly_deg": 322.1166,
      "mean_motion_rev_day": 15.27583442
    },
    {
      "epoch": "2026-03-30T17:10:38.196768Z",
      "apogee_km": 484.06072874848996,
      "perigee_km": 481.9938716147026,
      "latitude_deg": -4.756727682975456e-05,
      "longitude_deg": 131.71592579199373,
      "height_km": 482.8967463521705,
      "semi_major_axis_km": 6861.1643001815955,
      "eccentricity": 0.00015062,
      "inclination_deg": 42.9986,
      "raan_deg": 217.4786,
      "arg_perigee_deg": 264.8465,
      "mean_anomaly_deg": 95.2214,
      "mean_motion_rev_day": 15.27587279
    },
    {
      "epoch": "2026-03-31T08:52:12.469728Z",
      "apogee_km": 484.22122027795194,
      "perigee_km": 481.96867782907793,
      "latitude_deg": 4.31448841554592e-06,
      "longitude_deg": -108.01420462565488,
      "height_km": 482.5777719241048,
      "semi_major_axis_km": 6861.231949053515,
      "eccentricity": 0.00016415,
      "inclination_deg": 42.9991,
      "raan_deg": 213.7857,
      "arg_perigee_deg": 285.1302,
      "mean_anomaly_deg": 74.9368,
      "mean_motion_rev_day": 15.27564687
    },
    {
      "epoch": "2026-04-01T14:41:10.537728Z",
      "apogee_km": 483.94716047370275,
      "perigee_km": 482.031533997555,
      "latitude_deg": 5.082551960299699e-06,
      "longitude_deg": 156.5031428848123,
      "height_km": 482.70530767593584,
      "semi_major_axis_km": 6861.126347235629,
      "eccentricity": 0.0001396,
      "inclination_deg": 42.999,
      "raan_deg": 206.7695,
      "arg_perigee_deg": 273.6293,
      "mean_anomaly_deg": 86.4399,
      "mean_motion_rev_day": 15.27599954
    },
    {
      "epoch": "2026-04-02T14:13:30.983808Z",
      "apogee_km": 483.59826535833236,
      "perigee_km": 482.3550315652301,
      "latitude_deg": 6.10942190178928e-05,
      "longitude_deg": 156.91599860701106,
      "height_km": 483.00968314164965,
      "semi_major_axis_km": 6861.113648461781,
      "eccentricity": 9.06e-05,
      "inclination_deg": 42.9992,
      "raan_deg": 201.2342,
      "arg_perigee_deg": 245.5824,
      "mean_anomaly_deg": 114.4934,
      "mean_motion_rev_day": 15.27604195
    },
    {
      "epoch": "2026-04-03T16:54:11.072448Z",
      "apogee_km": 484.4773956286481,
      "perigee_km": 481.6752761022799,
      "latitude_deg": 2.127733916069267e-05,
      "longitude_deg": 109.37430195807997,
      "height_km": 482.87876175734107,
      "semi_major_axis_km": 6861.213335865464,
      "eccentricity": 0.0002042,
      "inclination_deg": 43.0033,
      "raan_deg": 194.9552,
      "arg_perigee_deg": 268.9834,
      "mean_anomaly_deg": 91.0784,
      "mean_motion_rev_day": 15.27570903
    },
    {
      "epoch": "2026-04-04T14:52:22.612224Z",
      "apogee_km": 483.8567999943116,
      "perigee_km": 482.0125439288886,
      "latitude_deg": -4.334135759485624e-05,
      "longitude_deg": 133.75287944722496,
      "height_km": 482.6875828491267,
      "semi_major_axis_km": 6861.071671961599,
      "eccentricity": 0.0001344,
      "inclination_deg": 42.9992,
      "raan_deg": 189.7842,
      "arg_perigee_deg": 271.4702,
      "mean_anomaly_deg": 88.5995,
      "mean_motion_rev_day": 15.27618214
    },
    {
      "epoch": "2026-04-05T14:24:45.169056Z",
      "apogee_km": 484.3983315651449,
      "perigee_km": 481.88161517131266,
      "latitude_deg": 1.9497308023244494e-05,
      "longitude_deg": 134.15292124213678,
      "height_km": 482.58627557962654,
      "semi_major_axis_km": 6861.276973368228,
      "eccentricity": 0.0001834,
      "inclination_deg": 42.9984,
      "raan_deg": 184.2449,
      "arg_perigee_deg": 285.2301,
      "mean_anomaly_deg": 74.8348,
      "mean_motion_rev_day": 15.27549651
    },
    {
      "epoch": "2026-04-05T22:15:32.270976Z",
      "apogee_km": 484.3230281694214,
      "perigee_km": 481.78617118735565,
      "latitude_deg": -7.019380371085101e-07,
      "longitude_deg": 14.288000209958422,
      "height_km": 482.45873351796246,
      "semi_major_axis_km": 6861.191599678388,
      "eccentricity": 0.00018487,
      "inclination_deg": 42.9986,
      "raan_deg": 182.3985,
      "arg_perigee_deg": 287.0901,
      "mean_anomaly_deg": 72.9748,
      "mean_motion_rev_day": 15.27578162
    },
    {
      "epoch": "2026-04-07T13:29:24.918144Z",
      "apogee_km": 483.96330005977325,
      "perigee_km": 481.96671937494557,
      "latitude_deg": -1.8454863452346643e-05,
      "longitude_deg": 134.97864195311183,
      "height_km": 482.44718599553,
      "semi_major_axis_km": 6861.10200971736,
      "eccentricity": 0.0001455,
      "inclination_deg": 43.0013,
      "raan_deg": 173.1697,
      "arg_perigee_deg": 287.17,
      "mean_anomaly_deg": 72.8992,
      "mean_motion_rev_day": 15.27608082
    },
    {
      "epoch": "2026-04-08T11:27:36.438912Z",
      "apogee_km": 484.29837936336844,
      "perigee_km": 481.8081789634489,
      "latitude_deg": 6.532464818857574e-05,
      "longitude_deg": 159.3531549748595,
      "height_km": 482.6818702325305,
      "semi_major_axis_km": 6861.190279163408,
      "eccentricity": 0.00018147,
      "inclination_deg": 42.9971,
      "raan_deg": 167.9944,
      "arg_perigee_deg": 276.8324,
      "mean_anomaly_deg": 83.2322,
      "mean_motion_rev_day": 15.27578603
    },
    {
      "epoch": "2026-04-09T20:24:54.153792Z",
      "apogee_km": 484.59437410540613,
      "perigee_km": 481.4656819406282,
      "latitude_deg": -1.489101138308909e-05,
      "longitude_deg": 15.922742830559063,
      "height_km": 482.62087753822453,
      "semi_major_axis_km": 6861.167028023017,
      "eccentricity": 0.000228,
      "inclination_deg": 43.0032,
      "raan_deg": 160.2413,
      "arg_perigee_deg": 276.8618,
      "mean_anomaly_deg": 83.1974,
      "mean_motion_rev_day": 15.27586368
    },
    {
      "epoch": "2026-04-10T04:15:41.305824Z",
      "apogee_km": 484.0190412457723,
      "perigee_km": 482.0424760378637,
      "latitude_deg": -3.230500965392553e-06,
      "longitude_deg": -103.94025386968283,
      "height_km": 482.7301181784206,
      "semi_major_axis_km": 6861.167758641818,
      "eccentricity": 0.00014404,
      "inclination_deg": 43.0009,
      "raan_deg": 158.397,
      "arg_perigee_deg": 274.4967,
      "mean_anomaly_deg": 85.572,
      "mean_motion_rev_day": 15.27586124
    },
    {
      "epoch": "2026-04-11T19:29:35.308608Z",
      "apogee_km": 484.39581183937935,
      "perigee_km": 481.61430484892753,
      "latitude_deg": -1.1553060957777947e-05,
      "longitude_deg": 16.739735098000445,
      "height_km": 482.6624470881635,
      "semi_major_axis_km": 6861.142058344153,
      "eccentricity": 0.0002027,
      "inclination_deg": 43.0002,
      "raan_deg": 149.1632,
      "arg_perigee_deg": 274.9432,
      "mean_anomaly_deg": 85.1188,
      "mean_motion_rev_day": 15.27594707
    },
    {
      "epoch": "2026-04-13T04:26:52.620000Z",
      "apogee_km": 484.3545365977052,
      "perigee_km": 481.7005009385557,
      "latitude_deg": -5.7223677740100556e-05,
      "longitude_deg": -126.69035100320512,
      "height_km": 482.63126122441116,
      "semi_major_axis_km": 6861.16451876813,
      "eccentricity": 0.00019341,
      "inclination_deg": 43.0,
      "raan_deg": 141.4087,
      "arg_perigee_deg": 277.5082,
      "mean_anomaly_deg": 82.5549,
      "mean_motion_rev_day": 15.27587206
    },
    {
      "epoch": "2026-04-14T11:50:00.276864Z",
      "apogee_km": 484.12704865415435,
      "perigee_km": 481.91802972891674,
      "latitude_deg": -4.222058952524778e-05,
      "longitude_deg": 113.85400757064879,
      "height_km": 482.71885920855016,
      "semi_major_axis_km": 6861.159539191535,
      "eccentricity": 0.00016098,
      "inclination_deg": 43.0006,
      "raan_deg": 134.0239,
      "arg_perigee_deg": 274.1864,
      "mean_anomaly_deg": 85.8803,
      "mean_motion_rev_day": 15.27588869
    }
  ]
}